LEMUR-1                 
1 40044U 14033AL  26190.39068934  .00001258  00000+0  14974-3 0  9996
2 40044  97.7901 339.7062 0048283   7.0442 353.1441 14.85326036648769
LEMUR-2-GREENBERG       
1 42837U 17042N   26190.49536315  .00011532  00000+0  37497-3 0  9996
2 42837  97.3831  11.0293 0007135 283.6729  76.3718 15.32031511491802
LEMUR-2-ANDIS           
1 42838U 17042P   26190.73271360  .00015725  00000+0  45347-3 0  9991
2 42838  97.3683  11.5304 0007099 281.4571  78.5875 15.35772741491916
LEMUR-2-MONSON          
1 42839U 17042Q   26191.46928106  .00009600  00000+0  34677-3 0  9999
2 42839  97.4089  11.9359 0005156 266.7916  93.2733 15.28674858491721
LEMUR-2-PETERG          
1 42841U 17042S   26190.46965602  .00016921  00000+0  50201-3 0  9998
2 42841  97.3999  15.5513 0002949 247.6478 112.4453 15.34883639491856
LEMUR-2-DEMBITZ         
1 42842U 17042T   26191.43918648  .00012615  00000+0  42317-3 0  9990
2 42842  97.3830  12.9130 0005051 296.1188  63.9533 15.31014043491908
LEMUR-2-ZACHARY         
1 42845U 17042W   26190.83151952  .00040627  00000+0  66596-3 0  9992
2 42845  97.3589  22.9819 0002379 275.3054  84.7927 15.52354875492719
LEMUR-2-SPECIAL-K       
1 48273U 21034F   26190.48357970  .00187516  00000+0  13703-2 0  9998
2 48273  97.5638 279.0810 0006094 220.1944 139.8869 15.72652165285180
LEMUR-2-EMBRIONOVIS     
1 56970U 23084AQ  26191.36601596  .00010396  00000+0  27880-3 0  9995
2 56970  97.6309 336.4682 0007916 225.0673 134.9930 15.38146742171248
LEMUR-2-VALHALLA        
1 58900U 24022B   26190.81685384  .00011917  00000+0  29656-3 0  9992
2 58900  97.4095  41.0892 0009800  41.9316 318.2679 15.40375714135757
LEMUR-2-CAEL            
1 58903U 24022E   26190.54758611  .00013295  00000+0  31637-3 0  9992
2 58903  97.4076  41.7924 0007756  28.9089 331.2586 15.41725396135783
LEMUR-2-JOHNNYTRUONG    
1 59146U 24043BA  26190.38966179  .00034473  00000+0  39216-3 0  9999
2 59146  97.5385 343.4983 0004347 109.9411 250.2315 15.62219537131500
LEMUR-2-TOMATOKECHUP    
1 60471U 24149D   26191.16513986  .00008259  00000+0  23404-3 0  9995
2 60471  97.3795 273.2768 0003048 131.7960 228.3545 15.36515487105692
LEMUR-2-STELLA          
1 60533U 24149BT  26190.05274528  .00007901  00000+0  46022-3 0  9991
2 60533  97.6729 272.6092 0001033 111.4430 248.6911 15.12285468103803
LEMUR-2-MARHISYAM       
1 60536U 24149BW  26191.16652374  .00007816  00000+0  46249-3 0  9992
2 60536  97.6880 274.2005 0002818  77.1938 282.9606 15.11717897103952
LEMUR-2-AHMED-ASRAR     
1 60576U 24149DN  26191.17809680  .00008812  00000+0  49942-3 0  9991
2 60576  97.7004 276.3951 0000730 234.1758 125.9404 15.13238870104048
LEMUR-2-LLOYD           
1 60577U 24149DP  26190.05092683  .00006907  00000+0  43278-3 0  9994
2 60577  97.6737 271.1966 0004815  85.7812 274.3967 15.09671321103699
LEMUR-2-SQUIRRELCOMM    
1 60578U 24149DQ  26189.03451372  .00003681  00000+0  24740-3 0  9994
2 60578  97.6707 269.8822 0004746 354.4134   5.7039 15.07397331103542
LEMUR-2-SIERRINI        
1 60579U 24149DR  26190.46627555  .00007778  00000+0  46374-3 0  9990
2 60579  97.6834 273.1629 0006454 105.6360 254.5582 15.11432329103822
LEMUR-2-WILSON          
1 62694U 25009CP  26190.17913811  .00001582  00000+0  14892-3 0  9994
2 62694  97.7024 268.2582 0002438 357.7647   2.3562 14.95266051 80642
LEMUR-2-STAR-FOX        
1 62696U 25009CR  26191.19971268  .00004242  00000+0  32140-3 0  9991
2 62696  97.6923 272.6444 0002940  60.6967 299.4551 15.02805279 81019
LEMUR-2-ARIANNA         
1 62699U 25009CU  26191.19818157  .00004468  00000+0  33830-3 0  9998
2 62699  97.6860 272.3989 0003191  65.7714 294.3844 15.02805498 81010
LEMUR-2-ALISIA          
1 62706U 25009DB  26191.17163499  .00006013  00000+0  44972-3 0  9994
2 62706  97.6965 273.1869 0003689 145.0737 215.0731 15.03127226103613
